start=new Date('2023-03-23T00:00:00.000Z').valueOf();
sats=[{"OBJECT_NAME":"STARLINK-1149","OBJECT_ID":"2020-006AM","LAUNCH_DATE":"2020-01-29","TLE_LINE2":"2 45079  53.0512  92.6815 0001520  87.4515 272.6648 15.06399651173351","EPHEMERIS_TYPE":"0","NORAD_CAT_ID":"45079","SITE":"AFETR","SEMIMAJOR_AXIS":"6925.350","OBJECT_TYPE":"PAYLOAD","COUNTRY_CODE":"US","BSTAR":"0.00037606000000","PERIOD":"95.592","MEAN_ELEMENT_THEORY":"SGP4","ECCENTRICITY":"0.00015200","DECAY_DATE":null,"MEAN_MOTION_DDOT":"0.0000000000000","EPOCH":"2023-03-21T17:33:58.453056","RCS_SIZE":"LARGE","ARG_OF_PERICENTER":"87.4515","REV_AT_EPOCH":"17335","TLE_LINE1":"1 45079U 20006AM  23080.73192654  .00005324  00000-0  37606-3 0  9992","GP_ID":"228617205","RA_OF_ASC_NODE":"92.6815","INCLINATION":"53.0512","TIME_SYSTEM":"UTC","CENTER_NAME":"EARTH","APOAPSIS":"548.267","MEAN_MOTION_DOT":"0.00005324","PERIAPSIS":"546.162","FILE":"3866953","ELEMENT_SET_NO":"999","MEAN_ANOMALY":"272.6648","CLASSIFICATION_TYPE":"U","REF_FRAME":"TEME","MEAN_MOTION":"15.06399651"},{"REV_AT_EPOCH":"17330","RCS_SIZE":"LARGE","ARG_OF_PERICENTER":"106.9672","GP_ID":"228585700","TLE_LINE1":"1 45080U 20006AN  23080.34216025  .00017347  00000-0  11798-2 0  9991","MEAN_MOTION_DDOT":"0.0000000000000","DECAY_DATE":null,"EPOCH":"2023-03-21T08:12:42.645600","ECCENTRICITY":"0.00014210","PERIOD":"95.591","MEAN_ELEMENT_THEORY":"SGP4","NORAD_CAT_ID":"45080","SITE":"AFETR","SEMIMAJOR_AXIS":"6925.275","EPHEMERIS_TYPE":"0","COUNTRY_CODE":"US","BSTAR":"0.00117980000000","OBJECT_TYPE":"PAYLOAD","TLE_LINE2":"2 45080  53.0518  94.4413 0001421 106.9672 253.1473 15.06423957173306","LAUNCH_DATE":"2020-01-29","OBJECT_ID":"2020-006AN","OBJECT_NAME":"STARLINK-1153","MEAN_ANOMALY":"253.1473","MEAN_MOTION":"15.06423957","REF_FRAME":"TEME","CLASSIFICATION_TYPE":"U","ELEMENT_SET_NO":"999","FILE":"3866730","PERIAPSIS":"546.156","MEAN_MOTION_DOT":"0.00017347","APOAPSIS":"548.124","CENTER_NAME":"EARTH","TIME_SYSTEM":"UTC","RA_OF_ASC_NODE":"94.4413","INCLINATION":"53.0518"},{"ECCENTRICITY":"0.00016700","PERIOD":"95.591","MEAN_ELEMENT_THEORY":"SGP4","REV_AT_EPOCH":"17330","RCS_SIZE":"LARGE","ARG_OF_PERICENTER":"76.0775","TLE_LINE1":"1 45081U 20006AP  23080.31910724  .00017515  00000-0  11913-2 0  9992","GP_ID":"228584450","MEAN_MOTION_DDOT":"0.0000000000000","DECAY_DATE":null,"EPOCH":"2023-03-21T07:39:30.865536","TLE_LINE2":"2 45081  53.0545  94.5384 0001670  76.0775 284.0399 15.06416814173306","LAUNCH_DATE":"2020-01-29","OBJECT_ID":"2020-006AP","OBJECT_NAME":"STARLINK-1151","SITE":"AFETR","NORAD_CAT_ID":"45081","SEMIMAJOR_AXIS":"6925.297","EPHEMERIS_TYPE":"0","BSTAR":"0.00119130000000","COUNTRY_CODE":"US","OBJECT_TYPE":"PAYLOAD","FILE":"3866730","PERIAPSIS":"546.006","MEAN_ANOMALY":"284.0399","REF_FRAME":"TEME","MEAN_MOTION":"15.06416814","CLASSIFICATION_TYPE":"U","ELEMENT_SET_NO":"999","TIME_SYSTEM":"UTC","RA_OF_ASC_NODE":"94.5384","INCLINATION":"53.0545","MEAN_MOTION_DOT":"0.00017515","APOAPSIS":"548.319","CENTER_NAME":"EARTH"},{"MEAN_MOTION_DDOT":"0.0000000000000","DECAY_DATE":null,"EPOCH":"2023-03-21T10:34:39.570528","REV_AT_EPOCH":"17331","RCS_SIZE":"LARGE","ARG_OF_PERICENTER":"101.4663","GP_ID":"228584699","TLE_LINE1":"1 45082U 20006AQ  23080.44073577  .00015656  00000-0  10669-2 0  9994","PERIOD":"95.591","MEAN_ELEMENT_THEORY":"SGP4","ECCENTRICITY":"0.00017010","SITE":"AFETR","SEMIMAJOR_AXIS":"6925.272","NORAD_CAT_ID":"45082","EPHEMERIS_TYPE":"0","COUNTRY_CODE":"US","BSTAR":"0.00106690000000","OBJECT_TYPE":"PAYLOAD","OBJECT_NAME":"STARLINK-1160","TLE_LINE2":"2 45082  53.0523  93.9872 0001701 101.4663 258.6517 15.06424985173310","LAUNCH_DATE":"2020-01-29","OBJECT_ID":"2020-006AQ","ELEMENT_SET_NO":"999","MEAN_ANOMALY":"258.6517","REF_FRAME":"TEME","MEAN_MOTION":"15.06424985","CLASSIFICATION_TYPE":"U","PERIAPSIS":"545.959","FILE":"3866730","CENTER_NAME":"EARTH","MEAN_MOTION_DOT":"0.00015656","APOAPSIS":"548.315","RA_OF_ASC_NODE":"93.9872","INCLINATION":"53.0523","TIME_SYSTEM":"UTC"},{"CLASSIFICATION_TYPE":"U","MEAN_MOTION":"15.06397841","REF_FRAME":"TEME","MEAN_ANOMALY":"264.9432","ELEMENT_SET_NO":"999","FILE":"3866953","PERIAPSIS":"546.199","APOAPSIS":"548.242","MEAN_MOTION_DOT":"0.00001699","CENTER_NAME":"EARTH","TIME_SYSTEM":"UTC","INCLINATION":"53.0528","RA_OF_ASC_NODE":"112.3628","GP_ID":"228617705","TLE_LINE1":"1 45083U 20006AR  23080.80474244  .00001699  00000-0  13294-3 0  9991","ARG_OF_PERICENTER":"95.1726","RCS_SIZE":"LARGE","REV_AT_EPOCH":"17309","EPOCH":"2023-03-21T19:18:49.746816","DECAY_DATE":null,"MEAN_MOTION_DDOT":"0.0000000000000","ECCENTRICITY":"0.00014750","MEAN_ELEMENT_THEORY":"SGP4","PERIOD":"95.592","OBJECT_TYPE":"PAYLOAD","BSTAR":"0.00013294000000","COUNTRY_CODE":"US","EPHEMERIS_TYPE":"0","NORAD_CAT_ID":"45083","SITE":"AFETR","SEMIMAJOR_AXIS":"6925.355","OBJECT_ID":"2020-006AR","LAUNCH_DATE":"2020-01-29","TLE_LINE2":"2 45083  53.0528 112.3628 0001475  95.1726 264.9432 15.06397841173099","OBJECT_NAME":"STARLINK-1190"},{"MEAN_ELEMENT_THEORY":"SGP4","PERIOD":"95.590","ECCENTRICITY":"0.00016670","EPOCH":"2023-03-21T10:54:35.108928","DECAY_DATE":null,"MEAN_MOTION_DDOT":"0.0000000000000","TLE_LINE1":"1 45084U 20006AS  23080.45457302  .00017345  00000-0  11793-2 0  9995","GP_ID":"228586200","ARG_OF_PERICENTER":"104.0275","RCS_SIZE":"LARGE","REV_AT_EPOCH":"17360","OBJECT_NAME":"STARLINK-1173","OBJECT_ID":"2020-006AS","LAUNCH_DATE":"2020-01-29","TLE_LINE2":"2 45084  53.0535  73.9333 0001667 104.0275 256.0899 15.06437089173600","OBJECT_TYPE":"PAYLOAD","BSTAR":"0.00117930000000","COUNTRY_CODE":"US","EPHEMERIS_TYPE":"0","NORAD_CAT_ID":"45084","SITE":"AFETR","SEMIMAJOR_AXIS":"6925.235","PERIAPSIS":"545.945","FILE":"3866730","ELEMENT_SET_NO":"999","CLASSIFICATION_TYPE":"U","REF_FRAME":"TEME","MEAN_MOTION":"15.06437089","MEAN_ANOMALY":"256.0899","INCLINATION":"53.0535","RA_OF_ASC_NODE":"73.9333","TIME_SYSTEM":"UTC","CENTER_NAME":"EARTH","APOAPSIS":"548.254","MEAN_MOTION_DOT":"0.00017345"},{"TIME_SYSTEM":"UTC","RA_OF_ASC_NODE":"73.9516","INCLINATION":"53.0525","APOAPSIS":"548.148","MEAN_MOTION_DOT":"0.00019805","CENTER_NAME":"EARTH","FILE":"3866730","PERIAPSIS":"546.086","MEAN_ANOMALY":"278.1543","CLASSIFICATION_TYPE":"U","MEAN_MOTION":"15.06431413","REF_FRAME":"TEME","ELEMENT_SET_NO":"999","LAUNCH_DATE":"2020-01-29","OBJECT_ID":"2020-006AT","TLE_LINE2":"2 45085  53.0525  73.9516 0001489  81.9615 278.1543 15.06431413173602","OBJECT_NAME":"STARLINK-1179","EPHEMERIS_TYPE":"0","SEMIMAJOR_AXIS":"6925.252","SITE":"AFETR","NORAD_CAT_ID":"45085","OBJECT_TYPE":"PAYLOAD","BSTAR":"0.00134360000000","COUNTRY_CODE":"US","ECCENTRICITY":"0.00014890","PERIOD":"95.590","MEAN_ELEMENT_THEORY":"SGP4","RCS_SIZE":"LARGE","ARG_OF_PERICENTER":"81.9615","REV_AT_EPOCH":"17360","GP_ID":"228584949","TLE_LINE1":"1 45085U 20006AT  23080.45090112  .00019805  00000-0  13436-2 0  9997","DECAY_DATE":null,"MEAN_MOTION_DDOT":"0.0000000000000","EPOCH":"2023-03-21T10:49:17.856768"},{"FILE":"3866730","PERIAPSIS":"431.480","CLASSIFICATION_TYPE":"U","REF_FRAME":"TEME","MEAN_MOTION":"15.43393042","MEAN_ANOMALY":"245.2330","ELEMENT_SET_NO":"999","TIME_SYSTEM":"UTC","INCLINATION":"52.9733","RA_OF_ASC_NODE":"27.0336","APOAPSIS":"440.731","MEAN_MOTION_DOT":"0.00154039","CENTER_NAME":"EARTH","ECCENTRICITY":"0.00067880","MEAN_ELEMENT_THEORY":"SGP4","PERIOD":"93.301","GP_ID":"228585199","TLE_LINE1":"1 45086U 20006AU  23080.22167086  .00154039  00000-0  33353-2 0  9997","ARG_OF_PERICENTER":"114.9380","RCS_SIZE":"LARGE","REV_AT_EPOCH":"17410","EPOCH":"2023-03-21T05:19:12.362304","MEAN_MOTION_DDOT":"0.0000000000000","DECAY_DATE":null,"LAUNCH_DATE":"2020-01-29","OBJECT_ID":"2020-006AU","TLE_LINE2":"2 45086  52.9733  27.0336 0006788 114.9380 245.2330 15.43393042174106","OBJECT_NAME":"STARLINK-1181","OBJECT_TYPE":"PAYLOAD","COUNTRY_CODE":"US","BSTAR":"0.00333530000000","EPHEMERIS_TYPE":"0","SEMIMAJOR_AXIS":"6814.241","SITE":"AFETR","NORAD_CAT_ID":"45086"},{"MEAN_MOTION":"15.06422573","REF_FRAME":"TEME","CLASSIFICATION_TYPE":"U","MEAN_ANOMALY":"271.3722","ELEMENT_SET_NO":"999","FILE":"3866953","PERIAPSIS":"546.346","MEAN_MOTION_DOT":"0.00018804","APOAPSIS":"547.943","CENTER_NAME":"EARTH","TIME_SYSTEM":"UTC","INCLINATION":"53.0527","RA_OF_ASC_NODE":"73.7202","GP_ID":"228617206","TLE_LINE1":"1 45087U 20006AV  23080.50249909  .00018804  00000-0  12771-2 0  9994","REV_AT_EPOCH":"17406","RCS_SIZE":"LARGE","ARG_OF_PERICENTER":"88.7399","EPOCH":"2023-03-21T12:03:35.921376","MEAN_MOTION_DDOT":"0.0000000000000","DECAY_DATE":null,"ECCENTRICITY":"0.00011530","MEAN_ELEMENT_THEORY":"SGP4","PERIOD":"95.591","BSTAR":"0.00127710000000","COUNTRY_CODE":"US","OBJECT_TYPE":"PAYLOAD","SEMIMAJOR_AXIS":"6925.279","SITE":"AFETR","NORAD_CAT_ID":"45087","EPHEMERIS_TYPE":"0","TLE_LINE2":"2 45087  53.0527  73.7202 0001153  88.7399 271.3722 15.06422573174060","LAUNCH_DATE":"2020-01-29","OBJECT_ID":"2020-006AV","OBJECT_NAME":"STARLINK-1185"},{"MEAN_ANOMALY":"272.1561","CLASSIFICATION_TYPE":"U","MEAN_MOTION":"15.06417576","REF_FRAME":"TEME","ELEMENT_SET_NO":"999","FILE":"3866730","PERIAPSIS":"546.228","APOAPSIS":"548.092","MEAN_MOTION_DOT":"0.00011136","CENTER_NAME":"EARTH","TIME_SYSTEM":"UTC","RA_OF_ASC_NODE":"74.2146","INCLINATION":"53.0555","RCS_SIZE":"LARGE","ARG_OF_PERICENTER":"87.9582","REV_AT_EPOCH":"17359","TLE_LINE1":"1 45088U 20006AW  23080.39192107  .00011136  00000-0  76495-3 0  9994","GP_ID":"228585701","DECAY_DATE":null,"MEAN_MOTION_DDOT":"0.0000000000000","EPOCH":"2023-03-21T09:24:21.980448","ECCENTRICITY":"0.00013460","PERIOD":"95.591","MEAN_ELEMENT_THEORY":"SGP4","EPHEMERIS_TYPE":"0","SITE":"AFETR","NORAD_CAT_ID":"45088","SEMIMAJOR_AXIS":"6925.295","OBJECT_TYPE":"PAYLOAD","BSTAR":"0.00076495000000","COUNTRY_CODE":"US","OBJECT_ID":"2020-006AW","LAUNCH_DATE":"2020-01-29","TLE_LINE2":"2 45088  53.0555  74.2146 0001346  87.9582 272.1561 15.06417576173598","OBJECT_NAME":"STARLINK-1183"}];
